{"type":"FeatureCollection","features":[{"type":"Feature","id":27,"geometry":{"type":"Polygon","coordinates":[[[-74.141250238283448,4.6309506645253533],[-74.141254997439106,4.6309173520390612],[-74.140817176343006,4.6308764252307304],[-74.140817176177904,4.630904978810598],[-74.141250238283448,4.6309506645253533]]]},"properties":{"objectid":27,"estacion":"Mandalay","tipo":"Vagon 1 E-W","nombre":"Vagon 2 N-S","secciontipo":"Vagon","id_vagon":237,"id_conexion":0,"id_entrada":0,"area_m2":166.53525274,"Shape__Area":166.53525275000001,"Shape__Length":103.98606226031568}},{"type":"Feature","id":120,"geometry":{"type":"Polygon","coordinates":[[[-74.141268321580327,4.630728899020828],[-74.140835260450388,4.630662273118614],[-74.14083145289824,4.6306946341835413],[-74.141262611280396,4.6307584035448377],[-74.141268321580327,4.630728899020828]]]},"properties":{"objectid":120,"estacion":"Mandalay","tipo":"Vagon 1 W-E","nombre":"Transicion 1 N-S","secciontipo":"Vagon","id_vagon":0,"id_conexion":0,"id_entrada":0,"area_m2":167.81198363000001,"Shape__Area":167.81198359000001,"Shape__Length":103.89805168009167}},{"type":"Feature","id":218,"geometry":{"type":"Polygon","coordinates":[[[-74.141930763867975,4.6308554857594117],[-74.141932667998191,4.6308136070030059],[-74.141504365245808,4.6307564998429331],[-74.141501509601085,4.6307907643968136],[-74.141930763867975,4.6308554857594117]]]},"properties":{"objectid":218,"estacion":"Mandalay","tipo":"Vagon 2 W-E","nombre":"Conexa","secciontipo":"Vagon","id_vagon":0,"id_conexion":0,"id_entrada":0,"area_m2":202.07764287999998,"Shape__Area":202.07764283500001,"Shape__Length":104.54386172089171}},{"type":"Feature","id":287,"geometry":{"type":"Polygon","coordinates":[[[-74.140895507780911,4.6309923462006992],[-74.140900584883212,4.6309162146223013],[-74.140816067252842,4.6309105802043637],[-74.140810990141361,4.6309867099736595],[-74.140895507780911,4.6309923462006992]]]},"properties":{"objectid":287,"estacion":"Mandalay","tipo":"Externa","nombre":"Externa","secciontipo":"Externa","id_vagon":0,"id_conexion":0,"id_entrada":0,"area_m2":79.300787350000007,"Shape__Area":79.300787339999999,"Shape__Length":35.672230713454184}},{"type":"Feature","id":333,"geometry":{"type":"Polygon","coordinates":[[[-74.140776249834587,4.6308412087417619],[-74.140788622823734,4.6307184285974667],[-74.140645854995427,4.6307165251242255],[-74.140635385620854,4.6308316917127623],[-74.140776249834587,4.6308412087417619]]]},"properties":{"objectid":333,"estacion":"Mandalay","tipo":"Conexa","nombre":"Conexion 2","secciontipo":"Conexa","id_vagon":0,"id_conexion":28,"id_entrada":0,"area_m2":207.82331030999998,"Shape__Area":207.82331033,"Shape__Length":57.942833704030924}},{"type":"Feature","id":426,"geometry":{"type":"Polygon","coordinates":[[[-74.14191934245278,4.6310344207540499],[-74.141921246802085,4.6310049156676589],[-74.141485329591816,4.6309601819569908],[-74.141486280601086,4.6309925434986088],[-74.14191934245278,4.6310344207540499]]]},"properties":{"objectid":426,"estacion":"Mandalay","tipo":"Vagon 2 E-W","nombre":"Vagon 1 N-S","secciontipo":"Vagon","id_vagon":236,"id_conexion":0,"id_entrada":0,"area_m2":165.16418999999999,"Shape__Area":165.164190015,"Shape__Length":103.74528884481825}},{"type":"Feature","id":538,"geometry":{"type":"Polygon","coordinates":[[[-74.141883398988043,4.6310010314862744],[-74.14189653982109,4.6308503252675015],[-74.140866826014133,4.6306998660647549],[-74.140865586587594,4.6307277180114044],[-74.140899030050463,4.6307317545663462],[-74.140888560462429,4.6308440644435995],[-74.140859104359976,4.6308433146969845],[-74.140854222908004,4.6308798881327942],[-74.141254997439106,4.6309173520390612],[-74.141485329591816,4.6309601819569908],[-74.141883398988043,4.6310010314862744]]]},"properties":{"objectid":538,"estacion":"Mandalay","tipo":"Conexion","nombre":"Vagon 2","secciontipo":"Conexion","id_vagon":358,"id_conexion":0,"id_entrada":0,"area_m2":2048.7498194499999,"Shape__Area":2048.7498194599998,"Shape__Length":273.8877608725054}},{"type":"Feature","id":1040,"geometry":{"type":"Polygon","coordinates":[[[-74.141504365245808,4.6307564998429331],[-74.141268321580327,4.630728899020828],[-74.141262611280396,4.6307584035448377],[-74.141501509601085,4.6307907643968136],[-74.141504365245808,4.6307564998429331]]]},"properties":{"objectid":1040,"estacion":"Mandalay","tipo":"Transicion 1 W-E","nombre":"Vagon 1","secciontipo":"Transicion","id_vagon":359,"id_conexion":0,"id_entrada":0,"area_m2":94.47956533,"Shape__Area":94.479565304999994,"Shape__Length":60.242457172915316}},{"type":"Feature","id":1073,"geometry":{"type":"Polygon","coordinates":[[[-74.140788622823734,4.6307184285974667],[-74.140776249834587,4.6308412087417619],[-74.140888560462429,4.6308440644435995],[-74.140899030050463,4.6307317545663462],[-74.140788622823734,4.6307184285974667]]]},"properties":{"objectid":1073,"estacion":"Mandalay","tipo":"Entrada","nombre":"Conexion 1","secciontipo":"Entrada","id_vagon":0,"id_conexion":27,"id_entrada":0,"area_m2":161.74398643000001,"Shape__Area":161.74398643999999,"Shape__Length":50.92484476453415}}]}