{"type":"FeatureCollection","features":[{"type":"Feature","id":652,"geometry":{"type":"Point","coordinates":[-74.06433866057165,4.670162650409122]},"properties":{"objectid":652,"num_est":"04108","nom_est":"Polo - FINCOMERCIO","id_trazado":"TZ005","long_est":220,"ancho_est":4,"num_vag":3,"esta_oper":1,"cap_art":192,"cap_biart":168}},{"type":"Feature","id":765,"geometry":{"type":"Point","coordinates":[-74.11064254777453,4.59737051091117]},"properties":{"objectid":765,"num_est":"07009","nom_est":"SENA","id_trazado":"TZ010","long_est":100.01,"ancho_est":4,"num_vag":2,"esta_oper":1,"cap_art":160,"cap_biart":144}},{"type":"Feature","id":732,"geometry":{"type":"Point","coordinates":[-74.13541451320731,4.568326563753448]},"properties":{"objectid":732,"num_est":"08001","nom_est":"Parque","id_trazado":"TZ014","long_est":45.66,"ancho_est":0,"num_vag":1,"esta_oper":1,"cap_art":36,"cap_biart":24}},{"type":"Feature","id":758,"geometry":{"type":"Point","coordinates":[-74.07742242431827,4.601029434184011]},"properties":{"objectid":758,"num_est":"10006","nom_est":"San Victorino","id_trazado":"TZ018","long_est":197.8,"ancho_est":4,"num_vag":3,"esta_oper":1,"cap_art":216,"cap_biart":168}},{"type":"Feature","id":670,"geometry":{"type":"Point","coordinates":[-74.05901951709693,4.675997370862644]},"properties":{"objectid":670,"num_est":"02302","nom_est":"Virrey","id_trazado":"TZ002","long_est":193.28,"ancho_est":4,"num_vag":3,"esta_oper":1,"cap_art":208,"cap_biart":144}},{"type":"Feature","id":734,"geometry":{"type":"Point","coordinates":[-74.06921969311787,4.615244902037747]},"properties":{"objectid":734,"num_est":"10009","nom_est":"Museo Nacional","id_trazado":"TZ019","long_est":123.83,"ancho_est":0,"num_vag":2,"esta_oper":1,"cap_art":144,"cap_biart":96}},{"type":"Feature","id":663,"geometry":{"type":"Point","coordinates":[-74.14129817180734,4.630863657469235]},"properties":{"objectid":663,"num_est":"05101","nom_est":"Mandalay","id_trazado":"TZ009","long_est":115.705,"ancho_est":3,"num_vag":2,"esta_oper":1,"cap_art":144,"cap_biart":96}},{"type":"Feature","id":626,"geometry":{"type":"Point","coordinates":[-74.07871009145556,4.645397563881436]},"properties":{"objectid":626,"num_est":"07106","nom_est":"Campín - UAN","id_trazado":"TZ008","long_est":122.82,"ancho_est":4,"num_vag":2,"esta_oper":1,"cap_art":152,"cap_biart":120}},{"type":"Feature","id":764,"geometry":{"type":"Point","coordinates":[-74.08432732198928,4.590195556533074]},"properties":{"objectid":764,"num_est":"10010","nom_est":"San Bernardo","id_trazado":"TZ018","long_est":115.71,"ancho_est":4,"num_vag":2,"esta_oper":1,"cap_art":144,"cap_biart":120}},{"type":"Feature","id":707,"geometry":{"type":"Point","coordinates":[-74.1457699625961,4.631294536922991]},"properties":{"objectid":707,"num_est":"05100","nom_est":"Banderas","id_trazado":"TZ009","long_est":536.19,"ancho_est":0,"num_vag":4,"esta_oper":1,"cap_art":320,"cap_biart":288}},{"type":"Feature","id":759,"geometry":{"type":"Point","coordinates":[-74.15688105483866,4.596280940258974]},"properties":{"objectid":759,"num_est":"07002","nom_est":"CC Paseo Villa del Río - Madelena","id_trazado":"TZ010","long_est":89.25,"ancho_est":4,"num_vag":2,"esta_oper":1,"cap_art":132,"cap_biart":72}},{"type":"Feature","id":768,"geometry":{"type":"Point","coordinates":[-74.08098652277597,4.73550811160933]},"properties":{"objectid":768,"num_est":"03003","nom_est":"21 Ángeles","id_trazado":"TZ003","long_est":94.15,"ancho_est":4,"num_vag":2,"esta_oper":1,"cap_art":96,"cap_biart":48}},{"type":"Feature","id":733,"geometry":{"type":"Point","coordinates":[-74.08701653918725,4.586115815512399]},"properties":{"objectid":733,"num_est":"10004","nom_est":"Policarpa","id_trazado":"TZ018","long_est":123.68,"ancho_est":4,"num_vag":2,"esta_oper":1,"cap_art":144,"cap_biart":120}},{"type":"Feature","id":717,"geometry":{"type":"Point","coordinates":[-74.07325476094951,4.677755746127176]},"properties":{"objectid":717,"num_est":"04106","nom_est":"Carrera 47","id_trazado":"TZ005","long_est":155,"ancho_est":4,"num_vag":2,"esta_oper":1,"cap_art":160,"cap_biart":144}},{"type":"Feature","id":634,"geometry":{"type":"Point","coordinates":[-74.12007924002512,4.575794151709622]},"properties":{"objectid":634,"num_est":"09100","nom_est":"Calle 40 Sur","id_trazado":"TZ012","long_est":179.92,"ancho_est":4,"num_vag":3,"esta_oper":1,"cap_art":224,"cap_biart":168}},{"type":"Feature","id":632,"geometry":{"type":"Point","coordinates":[-74.07130491506688,4.670151012299509]},"properties":{"objectid":632,"num_est":"07102","nom_est":"Calle 75 - Zona M","id_trazado":"TZ008","long_est":115.81,"ancho_est":4,"num_vag":2,"esta_oper":1,"cap_art":152,"cap_biart":120}},{"type":"Feature","id":755,"geometry":{"type":"Point","coordinates":[-74.10463943333943,4.625669742217356]},"properties":{"objectid":755,"num_est":"12000","nom_est":"Puente Aranda","id_trazado":"TZ009","long_est":89.2,"ancho_est":4,"num_vag":2,"esta_oper":1,"cap_art":120,"cap_biart":48}},{"type":"Feature","id":658,"geometry":{"type":"Point","coordinates":[-74.089553444556,4.616921876915299]},"properties":{"objectid":658,"num_est":"07110","nom_est":"Paloquemao","id_trazado":"TZ008","long_est":122.85,"ancho_est":4,"num_vag":2,"esta_oper":1,"cap_art":152,"cap_biart":120}},{"type":"Feature","id":650,"geometry":{"type":"Point","coordinates":[-74.08076896014731,4.686100882846748]},"properties":{"objectid":650,"num_est":"04104","nom_est":"AV. 68","id_trazado":"TZ005","long_est":144,"ancho_est":4,"num_vag":2,"esta_oper":1,"cap_art":152,"cap_biart":144}},{"type":"Feature","id":695,"geometry":{"type":"Point","coordinates":[-74.0998613741849,4.604249975583671]},"properties":{"objectid":695,"num_est":"07112","nom_est":"Comuneros","id_trazado":"TZ010","long_est":130.16,"ancho_est":4,"num_vag":2,"esta_oper":1,"cap_art":144,"cap_biart":108}},{"type":"Feature","id":767,"geometry":{"type":"Point","coordinates":[-74.12558393515768,4.564653275897263]},"properties":{"objectid":767,"num_est":"09003","nom_est":"Socorro","id_trazado":"TZ012","long_est":82.4,"ancho_est":4,"num_vag":2,"esta_oper":1,"cap_art":128,"cap_biart":72}},{"type":"Feature","id":766,"geometry":{"type":"Point","coordinates":[-74.0867947813114,4.609735205577463]},"properties":{"objectid":766,"num_est":"12004","nom_est":"San Facon Carrera 22","id_trazado":"TZ009","long_est":130.16,"ancho_est":4,"num_vag":2,"esta_oper":1,"cap_art":152,"cap_biart":120}},{"type":"Feature","id":728,"geometry":{"type":"Point","coordinates":[-74.07290843384371,4.601152978963138]},"properties":{"objectid":728,"num_est":"14004","nom_est":"Museo del Oro","id_trazado":"TZ015","long_est":55.63,"ancho_est":0,"num_vag":1,"esta_oper":1,"cap_art":72,"cap_biart":72}},{"type":"Feature","id":644,"geometry":{"type":"Point","coordinates":[-74.07932617980647,4.6371210477982805]},"properties":{"objectid":644,"num_est":"07107","nom_est":"Universidad Nacional","id_trazado":"TZ008","long_est":188.03,"ancho_est":4.43333333,"num_vag":3,"esta_oper":1,"cap_art":232,"cap_biart":180}},{"type":"Feature","id":691,"geometry":{"type":"Point","coordinates":[-74.07632059291059,4.620464994750269]},"properties":{"objectid":691,"num_est":"06109","nom_est":"Centro Memoria","id_trazado":"TZ016","long_est":130.01,"ancho_est":4,"num_vag":2,"esta_oper":1,"cap_art":140,"cap_biart":120}},{"type":"Feature","id":721,"geometry":{"type":"Point","coordinates":[-74.09392541573067,4.58628470770093]},"properties":{"objectid":721,"num_est":"09106","nom_est":"Nariño","id_trazado":"TZ012","long_est":88.49,"ancho_est":4,"num_vag":2,"esta_oper":1,"cap_art":96,"cap_biart":48}},{"type":"Feature","id":705,"geometry":{"type":"Point","coordinates":[-74.18122499859422,4.596887946711874]},"properties":{"objectid":705,"num_est":"07010","nom_est":"Bosa","id_trazado":"TZ010","long_est":126.08,"ancho_est":4,"num_vag":2,"esta_oper":1,"cap_art":152,"cap_biart":120}},{"type":"Feature","id":677,"geometry":{"type":"Point","coordinates":[-74.05145916301784,4.721158197762578]},"properties":{"objectid":677,"num_est":"02200","nom_est":"Alcalá – Colegio S. Tomás Dominicos","id_trazado":"TZ002","long_est":205.19,"ancho_est":4,"num_vag":3,"esta_oper":1,"cap_art":224,"cap_biart":168}},{"type":"Feature","id":624,"geometry":{"type":"Point","coordinates":[-74.07457455288298,4.666352641436107]},"properties":{"objectid":624,"num_est":"07103","nom_est":"AV. Chile","id_trazado":"TZ008","long_est":173.64,"ancho_est":4,"num_vag":3,"esta_oper":1,"cap_art":224,"cap_biart":120}},{"type":"Feature","id":698,"geometry":{"type":"Point","coordinates":[-74.09035159822346,4.581542540921835]},"properties":{"objectid":698,"num_est":"10003","nom_est":"Ciudad Jardín - UAN","id_trazado":"TZ018","long_est":108.28,"ancho_est":4,"num_vag":2,"esta_oper":1,"cap_art":144,"cap_biart":120}},{"type":"Feature","id":686,"geometry":{"type":"Point","coordinates":[-74.06444316945309,4.675611154981965]},"properties":{"objectid":686,"num_est":"07101","nom_est":"La Castellana","id_trazado":"TZ008","long_est":164.3,"ancho_est":4,"num_vag":4,"esta_oper":1,"cap_art":160,"cap_biart":72}},{"type":"Feature","id":636,"geometry":{"type":"Point","coordinates":[-74.13016384632475,4.629677230521839]},"properties":{"objectid":636,"num_est":"05103","nom_est":"Marsella","id_trazado":"TZ009","long_est":173.715,"ancho_est":3,"num_vag":3,"esta_oper":1,"cap_art":200,"cap_biart":120}},{"type":"Feature","id":681,"geometry":{"type":"Point","coordinates":[-74.04800034951191,4.741915299191302]},"properties":{"objectid":681,"num_est":"02102","nom_est":"Calle 161","id_trazado":"TZ002","long_est":172.62,"ancho_est":3,"num_vag":4,"esta_oper":1,"cap_art":96,"cap_biart":0}},{"type":"Feature","id":743,"geometry":{"type":"Point","coordinates":[-74.13924020305714,4.569571464031223]},"properties":{"objectid":743,"num_est":"08000","nom_est":"Portal Tunal","id_trazado":"TZ014","long_est":323.17,"ancho_est":0,"num_vag":1,"esta_oper":1,"cap_art":88,"cap_biart":64}},{"type":"Feature","id":643,"geometry":{"type":"Point","coordinates":[-74.08352723499065,4.630875429616791]},"properties":{"objectid":643,"num_est":"06107","nom_est":"Ciudad Universitaria - Lotería de Bogotá","id_trazado":"TZ016","long_est":130.67,"ancho_est":4,"num_vag":2,"esta_oper":1,"cap_art":140,"cap_biart":120}},{"type":"Feature","id":749,"geometry":{"type":"Point","coordinates":[-74.0747116339291,4.721267158257204]},"properties":{"objectid":749,"num_est":"03005","nom_est":"Suba - AV. Boyacá","id_trazado":"TZ003","long_est":176.75,"ancho_est":4,"num_vag":2,"esta_oper":1,"cap_art":96,"cap_biart":48}},{"type":"Feature","id":723,"geometry":{"type":"Point","coordinates":[-74.11867713273622,4.628506463940081]},"properties":{"objectid":723,"num_est":"05105","nom_est":"Pradera - Plaza Central","id_trazado":"TZ009","long_est":89.61,"ancho_est":3,"num_vag":2,"esta_oper":1,"cap_art":128,"cap_biart":72}},{"type":"Feature","id":692,"geometry":{"type":"Point","coordinates":[-74.10143787790989,4.62278153734826]},"properties":{"objectid":692,"num_est":"12001","nom_est":"Carrera 43 - Comapan","id_trazado":"TZ009","long_est":96.45,"ancho_est":4,"num_vag":2,"esta_oper":1,"cap_art":120,"cap_biart":48}},{"type":"Feature","id":661,"geometry":{"type":"Point","coordinates":[-74.199522612371,4.588962704262017]},"properties":{"objectid":661,"num_est":"07504","nom_est":"Terreros - Hospital Cardio Vascular","id_trazado":"TZ011","long_est":89.5,"ancho_est":4,"num_vag":3,"esta_oper":1,"cap_art":212,"cap_biart":144}},{"type":"Feature","id":722,"geometry":{"type":"Point","coordinates":[-74.07472333854827,4.727455840781251]},"properties":{"objectid":722,"num_est":"03004","nom_est":"Gratamira","id_trazado":"TZ003","long_est":89.35,"ancho_est":4,"num_vag":2,"esta_oper":1,"cap_art":96,"cap_biart":48}},{"type":"Feature","id":724,"geometry":{"type":"Point","coordinates":[-74.07432674893896,4.606065335057134]},"properties":{"objectid":724,"num_est":"10007","nom_est":"Las Nieves","id_trazado":"TZ018","long_est":130.1,"ancho_est":4,"num_vag":2,"esta_oper":1,"cap_art":144,"cap_biart":120}},{"type":"Feature","id":735,"geometry":{"type":"Point","coordinates":[-74.08622628902478,4.5950505152505325]},"properties":{"objectid":735,"num_est":"09108","nom_est":"Hospital","id_trazado":"TZ012","long_est":92.37,"ancho_est":4,"num_vag":2,"esta_oper":1,"cap_art":96,"cap_biart":0}},{"type":"Feature","id":714,"geometry":{"type":"Point","coordinates":[-74.05964363107933,4.672312786740467]},"properties":{"objectid":714,"num_est":"02303","nom_est":"Calle 85","id_trazado":"TZ002","long_est":216.42,"ancho_est":4,"num_vag":4,"esta_oper":1,"cap_art":200,"cap_biart":120}},{"type":"Feature","id":745,"geometry":{"type":"Point","coordinates":[-74.09193284888886,4.696881601543901]},"properties":{"objectid":745,"num_est":"04101","nom_est":"Minuto de Dios","id_trazado":"TZ005","long_est":144,"ancho_est":4,"num_vag":2,"esta_oper":1,"cap_art":152,"cap_biart":144}},{"type":"Feature","id":740,"geometry":{"type":"Point","coordinates":[-74.0846012702891,4.690885926692645]},"properties":{"objectid":740,"num_est":"04103","nom_est":"Ferias","id_trazado":"TZ005","long_est":45.75,"ancho_est":4,"num_vag":1,"esta_oper":1,"cap_art":80,"cap_biart":72}},{"type":"Feature","id":637,"geometry":{"type":"Point","coordinates":[-74.07230719784444,4.712001231323956]},"properties":{"objectid":637,"num_est":"03006","nom_est":"Niza - Calle 127","id_trazado":"TZ003","long_est":93.56,"ancho_est":4,"num_vag":2,"esta_oper":1,"cap_art":128,"cap_biart":72}},{"type":"Feature","id":747,"geometry":{"type":"Point","coordinates":[-74.06840143842119,4.602579756576608]},"properties":{"objectid":747,"num_est":"14005","nom_est":"Las Aguas - Centro Colombo Americano","id_trazado":"TZ015","long_est":61.73,"ancho_est":0,"num_vag":1,"esta_oper":1,"cap_art":72,"cap_biart":48}},{"type":"Feature","id":651,"geometry":{"type":"Point","coordinates":[-74.11158410680022,4.627850045092682]},"properties":{"objectid":651,"num_est":"05107","nom_est":"Distrito Grafiti","id_trazado":"TZ009","long_est":115.715,"ancho_est":3,"num_vag":2,"esta_oper":1,"cap_art":152,"cap_biart":120}},{"type":"Feature","id":757,"geometry":{"type":"Point","coordinates":[-74.06720873995816,4.693400771058854]},"properties":{"objectid":757,"num_est":"03010","nom_est":"Puentelargo","id_trazado":"TZ003","long_est":89.36,"ancho_est":4,"num_vag":2,"esta_oper":1,"cap_art":128,"cap_biart":72}},{"type":"Feature","id":730,"geometry":{"type":"Point","coordinates":[-74.09700840600513,4.565718118715743]},"properties":{"objectid":730,"num_est":"10000","nom_est":"Portal 20 de Julio","id_trazado":"TZ018","long_est":489.11,"ancho_est":0,"num_vag":1,"esta_oper":1,"cap_art":220,"cap_biart":130}},{"type":"Feature","id":750,"geometry":{"type":"Point","coordinates":[-74.12470871898489,4.570968483577163]},"properties":{"objectid":750,"num_est":"09004","nom_est":"Santa Lucía","id_trazado":"TZ012","long_est":121.56,"ancho_est":4,"num_vag":2,"esta_oper":1,"cap_art":152,"cap_biart":120}},{"type":"Feature","id":931,"geometry":{"type":"Point","coordinates":[-74.16929783953442,4.5969399451608615]},"properties":{"objectid":931,"num_est":"07000","nom_est":"Portal Sur - JFK Coop. Financiera","id_trazado":"TZ010","long_est":416.61,"ancho_est":0,"num_vag":1,"esta_oper":1,"cap_art":132,"cap_biart":96}},{"type":"Feature","id":718,"geometry":{"type":"Point","coordinates":[-74.11050626882579,4.709829487984559]},"properties":{"objectid":718,"num_est":"04000","nom_est":"Portal 80","id_trazado":"TZ005","long_est":281.77,"ancho_est":0,"num_vag":1,"esta_oper":1,"cap_art":110,"cap_biart":55}},{"type":"Feature","id":667,"geometry":{"type":"Point","coordinates":[-74.10142878243313,4.581849057280713]},"properties":{"objectid":667,"num_est":"09104","nom_est":"Restrepo","id_trazado":"TZ012","long_est":120.17,"ancho_est":4,"num_vag":2,"esta_oper":1,"cap_art":128,"cap_biart":72}},{"type":"Feature","id":668,"geometry":{"type":"Point","coordinates":[-74.0525582922202,4.714558425952716]},"properties":{"objectid":668,"num_est":"02201","nom_est":"Prado","id_trazado":"TZ002","long_est":148,"ancho_est":4,"num_vag":3,"esta_oper":1,"cap_art":176,"cap_biart":72}},{"type":"Feature","id":708,"geometry":{"type":"Point","coordinates":[-74.07686967795432,4.607864622138164]},"properties":{"objectid":708,"num_est":"09111","nom_est":"Calle 19","id_trazado":"TZ001","long_est":182.49,"ancho_est":3.5,"num_vag":3,"esta_oper":1,"cap_art":200,"cap_biart":120}},{"type":"Feature","id":713,"geometry":{"type":"Point","coordinates":[-74.06487053484368,4.648403969921902]},"properties":{"objectid":713,"num_est":"09120","nom_est":"Calle 63","id_trazado":"TZ001","long_est":187.6,"ancho_est":3.5,"num_vag":3,"esta_oper":1,"cap_art":0,"cap_biart":0}},{"type":"Feature","id":645,"geometry":{"type":"Point","coordinates":[-74.10877199870127,4.661944439127925]},"properties":{"objectid":645,"num_est":"06100","nom_est":"Avenida Rojas - UNISALESIANA","id_trazado":"TZ016","long_est":177.17,"ancho_est":3,"num_vag":3,"esta_oper":1,"cap_art":200,"cap_biart":120}},{"type":"Feature","id":701,"geometry":{"type":"Point","coordinates":[-74.1303886787077,4.57030351923882]},"properties":{"objectid":701,"num_est":"08002","nom_est":"Biblioteca","id_trazado":"TZ014","long_est":45.68,"ancho_est":0,"num_vag":1,"esta_oper":1,"cap_art":36,"cap_biart":24}},{"type":"Feature","id":762,"geometry":{"type":"Point","coordinates":[-74.06481662477188,4.680351057056148]},"properties":{"objectid":762,"num_est":"03013","nom_est":"Rionegro","id_trazado":"TZ003","long_est":89.21,"ancho_est":4,"num_vag":2,"esta_oper":1,"cap_art":96,"cap_biart":48}},{"type":"Feature","id":712,"geometry":{"type":"Point","coordinates":[-74.06126126157599,4.663029449928692]},"properties":{"objectid":712,"num_est":"09123","nom_est":"Calle 76 - San Felipe","id_trazado":"TZ001","long_est":182.25,"ancho_est":3.5,"num_vag":3,"esta_oper":1,"cap_art":200,"cap_biart":120}},{"type":"Feature","id":751,"geometry":{"type":"Point","coordinates":[-74.06717673781442,4.676389657040512]},"properties":{"objectid":751,"num_est":"03014","nom_est":"San Martín","id_trazado":"TZ003","long_est":89.37,"ancho_est":4,"num_vag":2,"esta_oper":1,"cap_art":132,"cap_biart":60}},{"type":"Feature","id":646,"geometry":{"type":"Point","coordinates":[-74.08383625075113,4.598135008352739]},"properties":{"objectid":646,"num_est":"09109","nom_est":"Tercer Milenio","id_trazado":"TZ001","long_est":184,"ancho_est":3.5,"num_vag":3,"esta_oper":1,"cap_art":200,"cap_biart":120}},{"type":"Feature","id":679,"geometry":{"type":"Point","coordinates":[-74.0542251639966,4.704639636465494]},"properties":{"objectid":679,"num_est":"02202","nom_est":"Calle 127","id_trazado":"TZ002","long_est":104.57,"ancho_est":4,"num_vag":2,"esta_oper":1,"cap_art":128,"cap_biart":72}},{"type":"Feature","id":754,"geometry":{"type":"Point","coordinates":[-74.06321827093115,4.684694637263692]},"properties":{"objectid":754,"num_est":"03012","nom_est":"Suba - Calle 95","id_trazado":"TZ003","long_est":89.57,"ancho_est":4,"num_vag":2,"esta_oper":1,"cap_art":96,"cap_biart":48}},{"type":"Feature","id":737,"geometry":{"type":"Point","coordinates":[-74.1649697299199,4.595787784538717]},"properties":{"objectid":737,"num_est":"07001","nom_est":"Perdomo","id_trazado":"TZ010","long_est":99.24,"ancho_est":4,"num_vag":2,"esta_oper":1,"cap_art":128,"cap_biart":72}},{"type":"Feature","id":689,"geometry":{"type":"Point","coordinates":[-74.18811218177783,4.59459381881802]},"properties":{"objectid":689,"num_est":"07506","nom_est":"La Despensa","id_trazado":"TZ011","long_est":89.5,"ancho_est":4,"num_vag":2,"esta_oper":1,"cap_art":152,"cap_biart":72}},{"type":"Feature","id":682,"geometry":{"type":"Point","coordinates":[-74.05618243307303,4.692982600439019]},"properties":{"objectid":682,"num_est":"02205","nom_est":"Calle 106 - Maletas Explora","id_trazado":"TZ002","long_est":209.14,"ancho_est":3,"num_vag":4,"esta_oper":1,"cap_art":128,"cap_biart":120}},{"type":"Feature","id":674,"geometry":{"type":"Point","coordinates":[-74.05050333189976,4.726850089637862]},"properties":{"objectid":674,"num_est":"02105","nom_est":"Calle 142","id_trazado":"TZ002","long_est":221.09,"ancho_est":3,"num_vag":4,"esta_oper":1,"cap_art":132,"cap_biart":48}},{"type":"Feature","id":630,"geometry":{"type":"Point","coordinates":[-74.10873932323864,4.7067252451522466]},"properties":{"objectid":630,"num_est":"04001","nom_est":"Quirigua","id_trazado":"TZ005","long_est":45.75,"ancho_est":4,"num_vag":1,"esta_oper":1,"cap_art":80,"cap_biart":72}},{"type":"Feature","id":763,"geometry":{"type":"Point","coordinates":[-74.06984394178146,4.699241108397645]},"properties":{"objectid":763,"num_est":"03009","nom_est":"Suba - Calle 116","id_trazado":"TZ003","long_est":96.6,"ancho_est":4,"num_vag":2,"esta_oper":1,"cap_art":128,"cap_biart":72}},{"type":"Feature","id":627,"geometry":{"type":"Point","coordinates":[-74.07150007434937,4.6108990861605195]},"properties":{"objectid":627,"num_est":"10008","nom_est":"San Diego","id_trazado":"TZ018","long_est":348.09,"ancho_est":4,"num_vag":2,"esta_oper":1,"cap_art":144,"cap_biart":144}},{"type":"Feature","id":739,"geometry":{"type":"Point","coordinates":[-74.11939099086611,4.531714583945091]},"properties":{"objectid":739,"num_est":"09000","nom_est":"Portal Usme","id_trazado":"TZ013","long_est":402.9,"ancho_est":0,"num_vag":1,"esta_oper":1,"cap_art":132,"cap_biart":78}},{"type":"Feature","id":685,"geometry":{"type":"Point","coordinates":[-74.07742142136232,4.681804753883138]},"properties":{"objectid":685,"num_est":"04105","nom_est":"Carrera 53","id_trazado":"TZ005","long_est":45.75,"ancho_est":4,"num_vag":1,"esta_oper":1,"cap_art":80,"cap_biart":72}},{"type":"Feature","id":716,"geometry":{"type":"Point","coordinates":[-74.09863412542575,4.571416733654898]},"properties":{"objectid":716,"num_est":"10001","nom_est":"Country Sur","id_trazado":"TZ018","long_est":115.31,"ancho_est":4,"num_vag":2,"esta_oper":1,"cap_art":144,"cap_biart":120}},{"type":"Feature","id":736,"geometry":{"type":"Point","coordinates":[-74.11328003037636,4.669008681376298]},"properties":{"objectid":736,"num_est":"06002","nom_est":"Normandía","id_trazado":"TZ016","long_est":106.03,"ancho_est":3,"num_vag":2,"esta_oper":1,"cap_art":140,"cap_biart":120}},{"type":"Feature","id":678,"geometry":{"type":"Point","coordinates":[-74.04981122855385,4.730891064158206]},"properties":{"objectid":678,"num_est":"02104","nom_est":"Calle 146","id_trazado":"TZ002","long_est":86.3,"ancho_est":4,"num_vag":3,"esta_oper":1,"cap_art":176,"cap_biart":72}},{"type":"Feature","id":687,"geometry":{"type":"Point","coordinates":[-74.0937094048318,4.576939314363686]},"properties":{"objectid":687,"num_est":"10002","nom_est":"AV. 1 Mayo","id_trazado":"TZ018","long_est":217.32,"ancho_est":4,"num_vag":3,"esta_oper":1,"cap_art":216,"cap_biart":168}},{"type":"Feature","id":642,"geometry":{"type":"Point","coordinates":[-74.09394954026446,4.616136161567741]},"properties":{"objectid":642,"num_est":"12002","nom_est":"CDS - Carrera 32","id_trazado":"TZ009","long_est":96.43,"ancho_est":4,"num_vag":2,"esta_oper":1,"cap_art":120,"cap_biart":48}},{"type":"Feature","id":725,"geometry":{"type":"Point","coordinates":[-74.11714710072533,4.675024658729783]},"properties":{"objectid":725,"num_est":"06001","nom_est":"Modelia","id_trazado":"TZ016","long_est":96.29,"ancho_est":3,"num_vag":2,"esta_oper":1,"cap_art":140,"cap_biart":120}},{"type":"Feature","id":746,"geometry":{"type":"Point","coordinates":[-74.17305846411314,4.629381310202615]},"properties":{"objectid":746,"num_est":"05000","nom_est":"Portal Américas","id_trazado":"TZ009","long_est":369.54,"ancho_est":0,"num_vag":1,"esta_oper":1,"cap_art":198,"cap_biart":144}},{"type":"Feature","id":720,"geometry":{"type":"Point","coordinates":[-74.12182778886832,4.557064564002366]},"properties":{"objectid":720,"num_est":"09001","nom_est":"Molinos","id_trazado":"TZ012","long_est":108.12,"ancho_est":4,"num_vag":2,"esta_oper":1,"cap_art":160,"cap_biart":144}},{"type":"Feature","id":635,"geometry":{"type":"Point","coordinates":[-74.13422457070207,4.630117798427176]},"properties":{"objectid":635,"num_est":"05102","nom_est":"AV. Américas - AV. Boyacá","id_trazado":"TZ009","long_est":115.715,"ancho_est":3,"num_vag":2,"esta_oper":1,"cap_art":152,"cap_biart":120}},{"type":"Feature","id":639,"geometry":{"type":"Point","coordinates":[-74.15206783620962,4.634194653572966]},"properties":{"objectid":639,"num_est":"05005","nom_est":"Transversal 86","id_trazado":"TZ009","long_est":115.71,"ancho_est":3,"num_vag":2,"esta_oper":1,"cap_art":144,"cap_biart":96}},{"type":"Feature","id":761,"geometry":{"type":"Point","coordinates":[-74.14741028754624,4.5951072628133565]},"properties":{"objectid":761,"num_est":"07003","nom_est":"Sevillana","id_trazado":"TZ010","long_est":99.28,"ancho_est":4,"num_vag":2,"esta_oper":1,"cap_art":132,"cap_biart":72}},{"type":"Feature","id":706,"geometry":{"type":"Point","coordinates":[-74.0841812050935,4.623415731317321]},"properties":{"objectid":706,"num_est":"07109","nom_est":"CAD","id_trazado":"TZ008","long_est":130.07,"ancho_est":4,"num_vag":2,"esta_oper":1,"cap_art":152,"cap_biart":120}},{"type":"Feature","id":673,"geometry":{"type":"Point","coordinates":[-74.05771229681588,4.683949437564952]},"properties":{"objectid":673,"num_est":"02300","nom_est":"Calle 100 - Marketmedios","id_trazado":"TZ002","long_est":203.61,"ancho_est":4,"num_vag":3,"esta_oper":1,"cap_art":224,"cap_biart":168}},{"type":"Feature","id":752,"geometry":{"type":"Point","coordinates":[-74.0673158462673,4.604646225337709]},"properties":{"objectid":752,"num_est":"06111","nom_est":"Universidades – CityU","id_trazado":"TZ016","long_est":122.85,"ancho_est":4,"num_vag":2,"esta_oper":1,"cap_art":140,"cap_biart":120}},{"type":"Feature","id":688,"geometry":{"type":"Point","coordinates":[-74.08189427103363,4.605421100257434]},"properties":{"objectid":688,"num_est":"14001","nom_est":"De La Sabana","id_trazado":"TZ009","long_est":96.47,"ancho_est":4,"num_vag":2,"esta_oper":1,"cap_art":120,"cap_biart":48}},{"type":"Feature","id":683,"geometry":{"type":"Point","coordinates":[-74.04922623638949,4.734588554219222]},"properties":{"objectid":683,"num_est":"02103","nom_est":"Mazurén","id_trazado":"TZ002","long_est":172.63,"ancho_est":3.2,"num_vag":5,"esta_oper":1,"cap_art":176,"cap_biart":72}},{"type":"Feature","id":662,"geometry":{"type":"Point","coordinates":[-74.06980215105027,4.675535012017993]},"properties":{"objectid":662,"num_est":"04107","nom_est":"Escuela Militar","id_trazado":"TZ005","long_est":122,"ancho_est":4,"num_vag":2,"esta_oper":1,"cap_art":152,"cap_biart":120}},{"type":"Feature","id":629,"geometry":{"type":"Point","coordinates":[-74.09386594942337,4.611683784449027]},"properties":{"objectid":629,"num_est":"07111","nom_est":"Ricaurte - NQS","id_trazado":"TZ008","long_est":187.96,"ancho_est":5.3,"num_vag":3,"esta_oper":1,"cap_art":224,"cap_biart":168}},{"type":"Feature","id":726,"geometry":{"type":"Point","coordinates":[-74.1213980169888,4.681622028944145]},"properties":{"objectid":726,"num_est":"06000","nom_est":"Portal El Dorado – C.C. Nuestro Bogotá","id_trazado":"TZ016","long_est":706.41,"ancho_est":0,"num_vag":1,"esta_oper":1,"cap_art":132,"cap_biart":84}},{"type":"Feature","id":704,"geometry":{"type":"Point","coordinates":[-74.13426992732451,4.594269934546364]},"properties":{"objectid":704,"num_est":"07005","nom_est":"Alquería","id_trazado":"TZ010","long_est":89.25,"ancho_est":4,"num_vag":2,"esta_oper":1,"cap_art":132,"cap_biart":72}},{"type":"Feature","id":719,"geometry":{"type":"Point","coordinates":[-74.1073638244642,4.578915188912788]},"properties":{"objectid":719,"num_est":"09103","nom_est":"Olaya","id_trazado":"TZ012","long_est":76.82,"ancho_est":4,"num_vag":3,"esta_oper":1,"cap_art":176,"cap_biart":120}},{"type":"Feature","id":756,"geometry":{"type":"Point","coordinates":[-74.11438050582953,4.5768097249310795]},"properties":{"objectid":756,"num_est":"09101","nom_est":"Quiroga","id_trazado":"TZ012","long_est":86.35,"ancho_est":4,"num_vag":2,"esta_oper":1,"cap_art":96,"cap_biart":48}},{"type":"Feature","id":649,"geometry":{"type":"Point","coordinates":[-74.07768645941138,4.657295279916713]},"properties":{"objectid":649,"num_est":"07104","nom_est":"7 de Agosto","id_trazado":"TZ008","long_est":123.23,"ancho_est":4,"num_vag":2,"esta_oper":1,"cap_art":140,"cap_biart":120}},{"type":"Feature","id":656,"geometry":{"type":"Point","coordinates":[-74.09868610794165,4.620325258204576]},"properties":{"objectid":656,"num_est":"12007","nom_est":"Zona Industrial","id_trazado":"TZ009","long_est":96.29,"ancho_est":4,"num_vag":2,"esta_oper":1,"cap_art":120,"cap_biart":48}},{"type":"Feature","id":647,"geometry":{"type":"Point","coordinates":[-74.08028965895312,4.6259873656835975]},"properties":{"objectid":647,"num_est":"06108","nom_est":"Concejo de Bogotá","id_trazado":"TZ016","long_est":122.88,"ancho_est":4,"num_vag":2,"esta_oper":1,"cap_art":140,"cap_biart":120}},{"type":"Feature","id":657,"geometry":{"type":"Point","coordinates":[-74.19313531304007,4.592172811180285]},"properties":{"objectid":657,"num_est":"07505","nom_est":"León XIII","id_trazado":"TZ011","long_est":89.5,"ancho_est":4,"num_vag":2,"esta_oper":1,"cap_art":152,"cap_biart":72}},{"type":"Feature","id":731,"geometry":{"type":"Point","coordinates":[-74.07117426613561,4.7066898225286575]},"properties":{"objectid":731,"num_est":"03007","nom_est":"Humedal Córdoba","id_trazado":"TZ003","long_est":89.4,"ancho_est":4,"num_vag":2,"esta_oper":1,"cap_art":108,"cap_biart":48}},{"type":"Feature","id":671,"geometry":{"type":"Point","coordinates":[-74.04725484779414,4.746184978881875]},"properties":{"objectid":671,"num_est":"02101","nom_est":"Toberin - Foundever","id_trazado":"TZ002","long_est":335,"ancho_est":3.6,"num_vag":5,"esta_oper":1,"cap_art":336,"cap_biart":216}},{"type":"Feature","id":654,"geometry":{"type":"Point","coordinates":[-74.09313226319551,4.637503527999294]},"properties":{"objectid":654,"num_est":"06105","nom_est":"Quinta Paredes","id_trazado":"TZ016","long_est":96.49,"ancho_est":3,"num_vag":2,"esta_oper":1,"cap_art":140,"cap_biart":120}},{"type":"Feature","id":748,"geometry":{"type":"Point","coordinates":[-74.09427890362022,4.746815071110087]},"properties":{"objectid":748,"num_est":"03000","nom_est":"Portal Suba","id_trazado":"TZ003","long_est":526.68,"ancho_est":0,"num_vag":1,"esta_oper":1,"cap_art":176,"cap_biart":128}},{"type":"Feature","id":675,"geometry":{"type":"Point","coordinates":[-74.04604464924742,4.754622860218019]},"properties":{"objectid":675,"num_est":"02000","nom_est":"Portal Norte – Unicervantes","id_trazado":"TZ002","long_est":365.66,"ancho_est":0,"num_vag":1,"esta_oper":1,"cap_art":132,"cap_biart":78}},{"type":"Feature","id":628,"geometry":{"type":"Point","coordinates":[-74.09601773277603,4.699150963155722]},"properties":{"objectid":628,"num_est":"04100","nom_est":"Granja - Kr 77","id_trazado":"TZ005","long_est":385,"ancho_est":4,"num_vag":4,"esta_oper":1,"cap_art":248,"cap_biart":144}},{"type":"Feature","id":696,"geometry":{"type":"Point","coordinates":[-74.10564665978902,4.6570670471491]},"properties":{"objectid":696,"num_est":"06101","nom_est":"El Tiempo – Cámara de Comercio de Bogotá","id_trazado":"TZ016","long_est":96.48,"ancho_est":3,"num_vag":2,"esta_oper":1,"cap_art":120,"cap_biart":120}},{"type":"Feature","id":653,"geometry":{"type":"Point","coordinates":[-74.08876139103779,4.599787201672794]},"properties":{"objectid":653,"num_est":"07200","nom_est":"Tygua - San José","id_trazado":"TZ007","long_est":121.67,"ancho_est":4,"num_vag":2,"esta_oper":1,"cap_art":132,"cap_biart":96}},{"type":"Feature","id":625,"geometry":{"type":"Point","coordinates":[-74.09904645134877,4.646876393808474]},"properties":{"objectid":625,"num_est":"06103","nom_est":"CAN","id_trazado":"TZ016","long_est":96.48,"ancho_est":3,"num_vag":2,"esta_oper":1,"cap_art":140,"cap_biart":120}},{"type":"Feature","id":684,"geometry":{"type":"Point","coordinates":[-74.06787872328032,4.6314524128782875]},"properties":{"objectid":684,"num_est":"09117","nom_est":"Calle 45 - American School Way","id_trazado":"TZ001","long_est":182.54,"ancho_est":3.5,"num_vag":3,"esta_oper":1,"cap_art":200,"cap_biart":120}},{"type":"Feature","id":648,"geometry":{"type":"Point","coordinates":[-74.123755076579,4.593809438726154]},"properties":{"objectid":648,"num_est":"07007","nom_est":"Cl38A sur - CENTRO MAYOR","id_trazado":"TZ010","long_est":153.95,"ancho_est":4,"num_vag":2,"esta_oper":1,"cap_art":140,"cap_biart":72}},{"type":"Feature","id":672,"geometry":{"type":"Point","coordinates":[-74.05530879980195,4.698126889760766]},"properties":{"objectid":672,"num_est":"02204","nom_est":"Pepe Sierra Universidad UTEL","id_trazado":"TZ002","long_est":104.62,"ancho_est":4,"num_vag":2,"esta_oper":1,"cap_art":128,"cap_biart":72}},{"type":"Feature","id":680,"geometry":{"type":"Point","coordinates":[-74.06030995135728,4.668136029647685]},"properties":{"objectid":680,"num_est":"02304","nom_est":"Héroes - Colmena Seguros","id_trazado":"TZ002","long_est":167.4,"ancho_est":4,"num_vag":3,"esta_oper":1,"cap_art":168,"cap_biart":96}},{"type":"Feature","id":631,"geometry":{"type":"Point","coordinates":[-74.06430481905278,4.686664075105651]},"properties":{"objectid":631,"num_est":"03011","nom_est":"Suba - Calle 100","id_trazado":"TZ003","long_est":89.39,"ancho_est":4,"num_vag":2,"esta_oper":1,"cap_art":160,"cap_biart":144}},{"type":"Feature","id":633,"geometry":{"type":"Point","coordinates":[-74.08675371760854,4.693553929576481]},"properties":{"objectid":633,"num_est":"04102","nom_est":"AV. Boyacá","id_trazado":"TZ005","long_est":168.15,"ancho_est":4,"num_vag":2,"esta_oper":1,"cap_art":160,"cap_biart":144}},{"type":"Feature","id":638,"geometry":{"type":"Point","coordinates":[-74.0915060498986,4.742916929058509]},"properties":{"objectid":638,"num_est":"03001","nom_est":"La Campiña","id_trazado":"TZ003","long_est":89.31,"ancho_est":4,"num_vag":3,"esta_oper":1,"cap_art":208,"cap_biart":144}},{"type":"Feature","id":640,"geometry":{"type":"Point","coordinates":[-74.08994044210418,4.634395531732532]},"properties":{"objectid":640,"num_est":"06106","nom_est":"Corferias","id_trazado":"TZ016","long_est":106.07,"ancho_est":4,"num_vag":2,"esta_oper":1,"cap_art":132,"cap_biart":120}},{"type":"Feature","id":641,"geometry":{"type":"Point","coordinates":[-74.0947495897,4.604034291395541]},"properties":{"objectid":641,"num_est":"07201","nom_est":"Guatoque - Veraguas","id_trazado":"TZ007","long_est":103.8,"ancho_est":4,"num_vag":2,"esta_oper":1,"cap_art":132,"cap_biart":108}},{"type":"Feature","id":655,"geometry":{"type":"Point","coordinates":[-74.10171935493257,4.650982052341222]},"properties":{"objectid":655,"num_est":"06102","nom_est":"Salitre - El Greco","id_trazado":"TZ016","long_est":96.48,"ancho_est":3,"num_vag":2,"esta_oper":1,"cap_art":140,"cap_biart":120}},{"type":"Feature","id":659,"geometry":{"type":"Point","coordinates":[-74.1050502345663,4.70487199855203]},"properties":{"objectid":659,"num_est":"04002","nom_est":"Carrera 90","id_trazado":"TZ005","long_est":142.15,"ancho_est":4,"num_vag":2,"esta_oper":1,"cap_art":160,"cap_biart":144}},{"type":"Feature","id":660,"geometry":{"type":"Point","coordinates":[-74.09665220938193,4.6430127510424155]},"properties":{"objectid":660,"num_est":"06104","nom_est":"Gobernación","id_trazado":"TZ016","long_est":96.49,"ancho_est":3,"num_vag":2,"esta_oper":1,"cap_art":140,"cap_biart":120}},{"type":"Feature","id":664,"geometry":{"type":"Point","coordinates":[-74.09993048407954,4.702211226918516]},"properties":{"objectid":664,"num_est":"04003","nom_est":"AV. Cali","id_trazado":"TZ005","long_est":142.15,"ancho_est":4,"num_vag":2,"esta_oper":1,"cap_art":160,"cap_biart":144}},{"type":"Feature","id":665,"geometry":{"type":"Point","coordinates":[-74.08746339298014,4.739408717712319]},"properties":{"objectid":665,"num_est":"03002","nom_est":"Suba - TV. 91","id_trazado":"TZ003","long_est":273.89,"ancho_est":4,"num_vag":4,"esta_oper":1,"cap_art":168,"cap_biart":96}},{"type":"Feature","id":666,"geometry":{"type":"Point","coordinates":[-74.09009249415548,4.612680959785939]},"properties":{"objectid":666,"num_est":"12003","nom_est":"Ricaurte - CL 13","id_trazado":"TZ009","long_est":184.2,"ancho_est":4,"num_vag":6,"esta_oper":1,"cap_art":192,"cap_biart":120}},{"type":"Feature","id":669,"geometry":{"type":"Point","coordinates":[-74.04366242900103,4.768253143203189]},"properties":{"objectid":669,"num_est":"02502","nom_est":"Terminal","id_trazado":"TZ002","long_est":48.79,"ancho_est":3,"num_vag":1,"esta_oper":1,"cap_art":80,"cap_biart":72}},{"type":"Feature","id":676,"geometry":{"type":"Point","coordinates":[-74.04452767198975,4.762808125248429]},"properties":{"objectid":676,"num_est":"02001","nom_est":"Calle 187","id_trazado":"TZ002","long_est":40.9,"ancho_est":3,"num_vag":1,"esta_oper":1,"cap_art":80,"cap_biart":72}},{"type":"Feature","id":693,"geometry":{"type":"Point","coordinates":[-74.12381078699146,4.5600935055591]},"properties":{"objectid":693,"num_est":"09002","nom_est":"Consuelo","id_trazado":"TZ012","long_est":81.57,"ancho_est":4,"num_vag":2,"esta_oper":1,"cap_art":120,"cap_biart":72}},{"type":"Feature","id":697,"geometry":{"type":"Point","coordinates":[-74.15895645390489,4.638263789456411]},"properties":{"objectid":697,"num_est":"05002","nom_est":"Biblioteca Tintal","id_trazado":"TZ009","long_est":199.2,"ancho_est":4.5,"num_vag":2,"esta_oper":1,"cap_art":160,"cap_biart":144}},{"type":"Feature","id":699,"geometry":{"type":"Point","coordinates":[-74.08233056329063,4.5933159856874815]},"properties":{"objectid":699,"num_est":"10005","nom_est":"Bicentenario","id_trazado":"TZ018","long_est":183.26,"ancho_est":4,"num_vag":3,"esta_oper":1,"cap_art":216,"cap_biart":168}},{"type":"Feature","id":700,"geometry":{"type":"Point","coordinates":[-74.06544770345945,4.6450140036178516]},"properties":{"objectid":700,"num_est":"09119","nom_est":"Temporal Calle 57","id_trazado":"TZ001","long_est":150.39,"ancho_est":3.5,"num_vag":2,"esta_oper":1,"cap_art":200,"cap_biart":120}},{"type":"Feature","id":702,"geometry":{"type":"Point","coordinates":[-74.07995827950504,4.630121524783391]},"properties":{"objectid":702,"num_est":"07108","nom_est":"AV. ElDorado","id_trazado":"TZ008","long_est":48.1,"ancho_est":4,"num_vag":2,"esta_oper":1,"cap_art":140,"cap_biart":120}},{"type":"Feature","id":710,"geometry":{"type":"Point","coordinates":[-74.07837670962138,4.649840483904393]},"properties":{"objectid":710,"num_est":"07105","nom_est":"Movistar Arena","id_trazado":"TZ008","long_est":122.82,"ancho_est":4,"num_vag":2,"esta_oper":1,"cap_art":152,"cap_biart":120}},{"type":"Feature","id":715,"geometry":{"type":"Point","coordinates":[-74.11814917192282,4.5947389074334275]},"properties":{"objectid":715,"num_est":"07008","nom_est":"NQS - Calle 30 S","id_trazado":"TZ010","long_est":89.62,"ancho_est":4,"num_vag":2,"esta_oper":1,"cap_art":160,"cap_biart":72}},{"type":"Feature","id":729,"geometry":{"type":"Point","coordinates":[-74.1302273362648,4.593563621920067]},"properties":{"objectid":729,"num_est":"07006","nom_est":"General Santander","id_trazado":"TZ010","long_est":122.8,"ancho_est":0,"num_vag":3,"esta_oper":1,"cap_art":212,"cap_biart":192}},{"type":"Feature","id":738,"geometry":{"type":"Point","coordinates":[-74.09030532494877,4.590774624236426]},"properties":{"objectid":738,"num_est":"09107","nom_est":"Hortúa","id_trazado":"TZ012","long_est":100.45,"ancho_est":4,"num_vag":2,"esta_oper":1,"cap_art":120,"cap_biart":72}},{"type":"Feature","id":741,"geometry":{"type":"Point","coordinates":[-74.06702398628823,4.636265967008029]},"properties":{"objectid":741,"num_est":"09118","nom_est":"Temporal Marly","id_trazado":"TZ001","long_est":176.19,"ancho_est":3.5,"num_vag":3,"esta_oper":1,"cap_art":200,"cap_biart":120}},{"type":"Feature","id":744,"geometry":{"type":"Point","coordinates":[-74.09959636956023,4.582863533953761]},"properties":{"objectid":744,"num_est":"09105","nom_est":"Fucha","id_trazado":"TZ012","long_est":80.04,"ancho_est":4,"num_vag":2,"esta_oper":1,"cap_art":96,"cap_biart":48}},{"type":"Feature","id":753,"geometry":{"type":"Point","coordinates":[-74.10284554081562,4.601487676868069]},"properties":{"objectid":753,"num_est":"07113","nom_est":"Santa Isabel","id_trazado":"TZ010","long_est":89.26,"ancho_est":4,"num_vag":2,"esta_oper":1,"cap_art":144,"cap_biart":96}},{"type":"Feature","id":760,"geometry":{"type":"Point","coordinates":[-74.20512641295089,4.586118444166164]},"properties":{"objectid":760,"num_est":"07503","nom_est":"San Mateo - CC Unisur","id_trazado":"TZ011","long_est":123.2,"ancho_est":4,"num_vag":3,"esta_oper":1,"cap_art":232,"cap_biart":192}},{"type":"Feature","id":769,"geometry":{"type":"Point","coordinates":[-74.07045415183497,4.619894657200409]},"properties":{"objectid":769,"num_est":"09115","nom_est":"Temporal Calle 34","id_trazado":"TZ001","long_est":150.4,"ancho_est":3.5,"num_vag":2,"esta_oper":1,"cap_art":200,"cap_biart":120}},{"type":"Feature","id":770,"geometry":{"type":"Point","coordinates":[-74.1428626037974,4.595541119557523]},"properties":{"objectid":770,"num_est":"07004","nom_est":"Venecia","id_trazado":"TZ010","long_est":105.93,"ancho_est":4,"num_vag":2,"esta_oper":1,"cap_art":132,"cap_biart":72}},{"type":"Feature","id":873,"geometry":{"type":"Point","coordinates":[-74.12104842261635,4.54608225841435]},"properties":{"objectid":873,"num_est":"9005","nom_est":"Danubio","id_trazado":"TZ013","long_est":199.2,"ancho_est":5,"num_vag":0,"esta_oper":1,"cap_art":160,"cap_biart":144}},{"type":"Feature","id":933,"geometry":{"type":"Point","coordinates":[-74.0758202688674,4.609481671097837]},"properties":{"objectid":933,"num_est":"09113","nom_est":"Temporal Calle 22","id_trazado":"TZ001","long_est":183.7,"ancho_est":3.5,"num_vag":3,"esta_oper":1,"cap_art":200,"cap_biart":120}},{"type":"Feature","id":694,"geometry":{"type":"Point","coordinates":[-74.08232653412165,4.600166621036774]},"properties":{"objectid":694,"num_est":"09110","nom_est":"Temporal AV. Jiménez - Inter Eléctricas","id_trazado":"TZ001","long_est":180.33,"ancho_est":3.5,"num_vag":3,"esta_oper":1,"cap_art":192,"cap_biart":96}},{"type":"Feature","id":709,"geometry":{"type":"Point","coordinates":[-74.07896838385648,4.602953402308559]},"properties":{"objectid":709,"num_est":"14003","nom_est":"Temporal AV. Jiménez - Inter Eléctricas","id_trazado":"TZ015","long_est":124.6,"ancho_est":0,"num_vag":5,"esta_oper":1,"cap_art":152,"cap_biart":120}},{"type":"Feature","id":934,"geometry":{"type":"Point","coordinates":[-74.06876409813857,4.62653462660227]},"properties":{"objectid":934,"num_est":"09116","nom_est":"Temporal AV. 39","id_trazado":"TZ001","long_est":184,"ancho_est":3.5,"num_vag":3,"esta_oper":1,"cap_art":192,"cap_biart":120}},{"type":"Feature","id":935,"geometry":{"type":"Point","coordinates":[-74.06399583760741,4.652760673923601]},"properties":{"objectid":935,"num_est":"09121","nom_est":"Temporal Flores – Areandina","id_trazado":"TZ001","long_est":109.75,"ancho_est":3.5,"num_vag":2,"esta_oper":1,"cap_art":120,"cap_biart":72}},{"type":"Feature","id":742,"geometry":{"type":"Point","coordinates":[-74.16461426660447,4.633180282913106]},"properties":{"objectid":742,"num_est":"05001","nom_est":"Patio Bonito","id_trazado":"TZ009","long_est":199.2,"ancho_est":4.5,"num_vag":4,"esta_oper":1,"cap_art":160,"cap_biart":144}},{"type":"Feature","id":703,"geometry":{"type":"Point","coordinates":[-74.07215845806978,4.616651548430109]},"properties":{"objectid":703,"num_est":"09114","nom_est":"Calle 26 - Atrio","id_trazado":"TZ001","long_est":182.52,"ancho_est":3.5,"num_vag":3,"esta_oper":1,"cap_art":0,"cap_biart":0}},{"type":"Feature","id":690,"geometry":{"type":"Point","coordinates":[-74.06206786085158,4.6582375457047975]},"properties":{"objectid":690,"num_est":"09122","nom_est":"Calle 72 - Areandina","id_trazado":"TZ001","long_est":383,"ancho_est":5,"num_vag":3,"esta_oper":1,"cap_art":0,"cap_biart":0}},{"type":"Feature","id":1338,"geometry":{"type":"Point","coordinates":[-74.19375664961298,4.61436236468546]},"properties":{"objectid":1338,"num_est":"5009","nom_est":"Islandia","id_trazado":"TZ022","long_est":136.8,"ancho_est":7,"num_vag":4,"esta_oper":1,"cap_art":160,"cap_biart":144}},{"type":"Feature","id":1337,"geometry":{"type":"Point","coordinates":[-74.20234039259637,4.611099685179863]},"properties":{"objectid":1337,"num_est":"5010","nom_est":"Los Laureles","id_trazado":"TZ022","long_est":136.8,"ancho_est":7,"num_vag":4,"esta_oper":1,"cap_art":160,"cap_biart":144}},{"type":"Feature","id":1335,"geometry":{"type":"Point","coordinates":[-74.20606384952211,4.606750488612641]},"properties":{"objectid":1335,"num_est":"5011","nom_est":"Tibanica - Primavera","id_trazado":"TZ022","long_est":199.2,"ancho_est":5,"num_vag":2,"esta_oper":1,"cap_art":160,"cap_biart":144}}]}